{"type": "FeatureCollection", "features": [ {"type": "Feature", "properties": {"norad_id": 41836, "name": "HIMAWARI-9", "group": "weather", "lat": 0.017362617572060514, "lon": 1.1291854308900675, "alt_km": 35781.43863351528, "timestamp": "2025-12-04T09:47:37.165986+00:00", "meta": {"OBJECT_NAME": "HIMAWARI-9", "OBJECT_ID": "2016-064A", "EPOCH": "2025-12-03T18:51:33.971904", "MEAN_MOTION": 1.00270864, "ECCENTRICITY": 0.00023308, "INCLINATION": 0.0194, "RA_OF_ASC_NODE": 347.0429, "ARG_OF_PERICENTER": 314.766, "MEAN_ANOMALY": 194.6947, "EPHEMERIS_TYPE": 0, "CLASSIFICATION_TYPE": "U", "NORAD_CAT_ID": 41836, "ELEMENT_SET_NO": 999, "REV_AT_EPOCH": 3325, "BSTAR": 0, "MEAN_MOTION_DOT": 0, "MEAN_MOTION_DDOT": 0}, "tle": {"line1": "1 41836U 16064A   25337.78580986  .00000000  00000+0  00000+0 0  9998", "line2": "2 41836   0.0194 347.0429 0002330 314.7660 194.6947  1.00270864 33253"}}, "geometry": {"type": "Point", "coordinates": [1.1291854308900675, 0.017362617572060514]}}, {"type": "Feature", "properties": {"norad_id": 41866, "name": "GOES 16", "group": "weather", "lat": 0.031151097851655863, "lon": 115.66749517266335, "alt_km": 35797.862881623354, "timestamp": "2025-12-04T09:47:37.166002+00:00", "meta": {"OBJECT_NAME": "GOES 16", "OBJECT_ID": "2016-071A", "EPOCH": "2025-12-04T01:14:34.598976", "MEAN_MOTION": 1.00270627, "ECCENTRICITY": 0.0003448, "INCLINATION": 0.061, "RA_OF_ASC_NODE": 105.5074, "ARG_OF_PERICENTER": 151.8567, "MEAN_ANOMALY": 89.7393, "EPHEMERIS_TYPE": 0, "CLASSIFICATION_TYPE": "U", "NORAD_CAT_ID": 41866, "ELEMENT_SET_NO": 999, "REV_AT_EPOCH": 3314, "BSTAR": 0, "MEAN_MOTION_DOT": -7.4e-07, "MEAN_MOTION_DDOT": 0}, "tle": {"line1": "1 41866U 16071A   25338.05178934 -.00000074  00000+0  00000+0 0  9998", "line2": "2 41866   0.0610 105.5074 0003448 151.8567  89.7393  1.00270627 33143"}}, "geometry": {"type": "Point", "coordinates": [115.66749517266335, 0.031151097851655863]}}, {"type": "Feature", "properties": {"norad_id": 41882, "name": "FENGYUN 4A", "group": "weather", "lat": -1.798829315000652, "lon": -15.834211138036268, "alt_km": 35795.14552480941, "timestamp": "2025-12-04T09:47:37.166027+00:00", "meta": {"OBJECT_NAME": "FENGYUN 4A", "OBJECT_ID": "2016-077A", "EPOCH": "2025-12-03T17:33:02.668032", "MEAN_MOTION": 1.00278005, "ECCENTRICITY": 0.00050458, "INCLINATION": 1.8246, "RA_OF_ASC_NODE": 82.4798, "ARG_OF_PERICENTER": 142.0307, "MEAN_ANOMALY": 235.3013, "EPHEMERIS_TYPE": 0, "CLASSIFICATION_TYPE": "U", "NORAD_CAT_ID": 41882, "ELEMENT_SET_NO": 999, "REV_AT_EPOCH": 3297, "BSTAR": 0, "MEAN_MOTION_DOT": -3.4e-06, "MEAN_MOTION_DDOT": 0}, "tle": {"line1": "1 41882U 16077A   25337.73128088 -.00000340  00000+0  00000+0 0  9997", "line2": "2 41882   1.8246  82.4798 0005045 142.0307 235.3013  1.00278005 32976"}}, "geometry": {"type": "Point", "coordinates": [-15.834211138036268, -1.798829315000652]}}, {"type": "Feature", "properties": {"norad_id": 41884, "name": "CYGFM05", "group": "weather", "lat": -25.58958197052384, "lon": 58.261473026479656, "alt_km": 432.1811930844915, "timestamp": "2025-12-04T09:47:37.166041+00:00", "meta": {"OBJECT_NAME": "CYGFM05", "OBJECT_ID": "2016-078A", "EPOCH": "2025-12-03T18:31:05.680992", "MEAN_MOTION": 15.47125161, "ECCENTRICITY": 0.0009412, "INCLINATION": 34.9582, "RA_OF_ASC_NODE": 105.6898, "ARG_OF_PERICENTER": 97.1465, "MEAN_ANOMALY": 263.0327, "EPHEMERIS_TYPE": 0, "CLASSIFICATION_TYPE": "U", "NORAD_CAT_ID": 41884, "ELEMENT_SET_NO": 999, "REV_AT_EPOCH": 49837, "BSTAR": 0.00060726, "MEAN_MOTION_DOT": 0.00031867, "MEAN_MOTION_DDOT": 0}, "tle": {"line1": "1 41884U 16078A   25337.77159353  .00031867  00000+0  60726-3 0  9995", "line2": "2 41884  34.9582 105.6898 0009412  97.1465 263.0327 15.47125161498370"}}, "geometry": {"type": "Point", "coordinates": [58.261473026479656, -25.58958197052384]}}, {"type": "Feature", "properties": {"norad_id": 41885, "name": "CYGFM04", "group": "weather", "lat": 32.681851917642994, "lon": -170.2473546942459, "alt_km": 405.8036251608446, "timestamp": "2025-12-04T09:47:37.166052+00:00", "meta": {"OBJECT_NAME": "CYGFM04", "OBJECT_ID": "2016-078B", "EPOCH": "2025-12-03T16:19:08.756544", "MEAN_MOTION": 15.4978051, "ECCENTRICITY": 0.00084979, "INCLINATION": 34.9344, "RA_OF_ASC_NODE": 81.322, "ARG_OF_PERICENTER": 126.9892, "MEAN_ANOMALY": 233.1609, "EPHEMERIS_TYPE": 0, "CLASSIFICATION_TYPE": "U", "NORAD_CAT_ID": 41885, "ELEMENT_SET_NO": 999, "REV_AT_EPOCH": 49853, "BSTAR": 0.00098169301, "MEAN_MOTION_DOT": 0.00056749, "MEAN_MOTION_DDOT": 0}, "tle": {"line1": "1 41885U 16078B   25337.67996246  .00056749  00000+0  98169-3 0  9993", "line2": "2 41885  34.9344  81.3220 0008497 126.9892 233.1609 15.49780510498539"}}, "geometry": {"type": "Point", "coordinates": [-170.2473546942459, 32.681851917642994]}}, {"type": "Feature", "properties": {"norad_id": 41886, "name": "CYGFM02", "group": "weather", "lat": 34.46182196164742, "lon": 154.3728410965654, "alt_km": 402.62454761854224, "timestamp": "2025-12-04T09:47:37.166063+00:00", "meta": {"OBJECT_NAME": "CYGFM02", "OBJECT_ID": "2016-078C", "EPOCH": "2025-12-03T16:27:15.357888", "MEAN_MOTION": 15.51117901, "ECCENTRICITY": 0.00102215, "INCLINATION": 34.9434, "RA_OF_ASC_NODE": 79.7274, "ARG_OF_PERICENTER": 125.8816, "MEAN_ANOMALY": 234.2856, "EPHEMERIS_TYPE": 0, "CLASSIFICATION_TYPE": "U", "NORAD_CAT_ID": 41886, "ELEMENT_SET_NO": 999, "REV_AT_EPOCH": 49866, "BSTAR": 0.00053654674, "MEAN_MOTION_DOT": 0.0003243, "MEAN_MOTION_DDOT": 0}, "tle": {"line1": "1 41886U 16078C   25337.68559442  .00032430  00000+0  53655-3 0  9990", "line2": "2 41886  34.9434  79.7274 0010221 125.8816 234.2856 15.51117901498663"}}, "geometry": {"type": "Point", "coordinates": [154.3728410965654, 34.46182196164742]}}, {"type": "Feature", "properties": {"norad_id": 41887, "name": "CYGFM01", "group": "weather", "lat": -12.433230960847949, "lon": 85.53486678749306, "alt_km": 426.45856024149725, "timestamp": "2025-12-04T09:47:37.166074+00:00", "meta": {"OBJECT_NAME": "CYGFM01", "OBJECT_ID": "2016-078D", "EPOCH": "2025-12-03T18:24:28.844928", "MEAN_MOTION": 15.4768667, "ECCENTRICITY": 0.00090329, "INCLINATION": 34.9412, "RA_OF_ASC_NODE": 108.1317, "ARG_OF_PERICENTER": 88.3823, "MEAN_ANOMALY": 271.7933, "EPHEMERIS_TYPE": 0, "CLASSIFICATION_TYPE": "U", "NORAD_CAT_ID": 41887, "ELEMENT_SET_NO": 999, "REV_AT_EPOCH": 49831, "BSTAR": 0.00054644493, "MEAN_MOTION_DOT": 0.00029225, "MEAN_MOTION_DDOT": 0}, "tle": {"line1": "1 41887U 16078D   25337.76700052  .00029225  00000+0  54644-3 0  9992", "line2": "2 41887  34.9412 108.1317 0009032  88.3823 271.7933 15.47686670498317"}}, "geometry": {"type": "Point", "coordinates": [85.53486678749306, -12.433230960847949]}}, {"type": "Feature", "properties": {"norad_id": 41888, "name": "CYGFM08", "group": "weather", "lat": -5.485975905120446, "lon": 79.12504969143389, "alt_km": 424.2140048363335, "timestamp": "2025-12-04T09:47:37.166085+00:00", "meta": {"OBJECT_NAME": "CYGFM08", "OBJECT_ID": "2016-078E", "EPOCH": "2025-12-03T16:49:09.162336", "MEAN_MOTION": 15.48859684, "ECCENTRICITY": 0.00107145, "INCLINATION": 34.9451, "RA_OF_ASC_NODE": 91.66, "ARG_OF_PERICENTER": 114.1528, "MEAN_ANOMALY": 246.0315, "EPHEMERIS_TYPE": 0, "CLASSIFICATION_TYPE": "U", "NORAD_CAT_ID": 41888, "ELEMENT_SET_NO": 999, "REV_AT_EPOCH": 49853, "BSTAR": 0.00053575123, "MEAN_MOTION_DOT": 0.00029879, "MEAN_MOTION_DDOT": 0}, "tle": {"line1": "1 41888U 16078E   25337.70080049  .00029879  00000+0  53575-3 0  9991", "line2": "2 41888  34.9451  91.6600 0010714 114.1528 246.0315 15.48859684498532"}}, "geometry": {"type": "Point", "coordinates": [79.12504969143389, -5.485975905120446]}}, {"type": "Feature", "properties": {"norad_id": 41890, "name": "CYGFM07", "group": "weather", "lat": -21.188117041690468, "lon": 42.342068489834766, "alt_km": 425.52635787260624, "timestamp": "2025-12-04T09:47:37.166096+00:00", "meta": {"OBJECT_NAME": "CYGFM07", "OBJECT_ID": "2016-078G", "EPOCH": "2025-12-03T16:57:09.459072", "MEAN_MOTION": 15.49431579, "ECCENTRICITY": 0.00089923, "INCLINATION": 34.9472, "RA_OF_ASC_NODE": 80.6555, "ARG_OF_PERICENTER": 132.3245, "MEAN_ANOMALY": 227.824, "EPHEMERIS_TYPE": 0, "CLASSIFICATION_TYPE": "U", "NORAD_CAT_ID": 41890, "ELEMENT_SET_NO": 999, "REV_AT_EPOCH": 49855, "BSTAR": 0.00053085543, "MEAN_MOTION_DOT": 0.00030191, "MEAN_MOTION_DDOT": 0}, "tle": {"line1": "1 41890U 16078G   25337.70635948  .00030191  00000+0  53086-3 0  9994", "line2": "2 41890  34.9472  80.6555 0008992 132.3245 227.8240 15.49431579498554"}}, "geometry": {"type": "Point", "coordinates": [42.342068489834766, -21.188117041690468]}}, {"type": "Feature", "properties": {"norad_id": 41891, "name": "CYGFM03", "group": "weather", "lat": 11.996368070303493, "lon": -119.74726217312667, "alt_km": 410.9702370436071, "timestamp": "2025-12-04T09:47:37.166107+00:00", "meta": {"OBJECT_NAME": "CYGFM03", "OBJECT_ID": "2016-078H", "EPOCH": "2025-12-03T17:38:56.094144", "MEAN_MOTION": 15.49338017, "ECCENTRICITY": 0.00083441, "INCLINATION": 34.9426, "RA_OF_ASC_NODE": 82.3772, "ARG_OF_PERICENTER": 119.6239, "MEAN_ANOMALY": 240.5315, "EPHEMERIS_TYPE": 0, "CLASSIFICATION_TYPE": "U", "NORAD_CAT_ID": 41891, "ELEMENT_SET_NO": 999, "REV_AT_EPOCH": 49853, "BSTAR": 0.00054311714, "MEAN_MOTION_DOT": 0.00030783, "MEAN_MOTION_DDOT": 0}, "tle": {"line1": "1 41891U 16078H   25337.73537146  .00030783  00000+0  54312-3 0  9999", "line2": "2 41891  34.9426  82.3772 0008344 119.6239 240.5315 15.49338017498532"}}, "geometry": {"type": "Point", "coordinates": [-119.74726217312667, 11.996368070303493]}}]}